ONEWEB-0520             
1 54138U 22138AB  25327.05978258  .00000080  00000+0  16840-3 0  9999
2 54138  87.9216 345.9701 0002165  92.3116 267.8264 13.19728354149632
ONEWEB-0521             
1 54139U 22138AC  25327.09295397 -.00000025  00000+0 -95977-4 0  9990
2 54139  87.9208 345.9493 0001731  96.7307 263.4023 13.19724750149585
ONEWEB-0522             
1 54140U 22138AD  25327.07243657  .00000103  00000+0  22590-3 0  9997
2 54140  87.9215 345.9543 0002024  95.9771 264.1593 13.19725367149623
ONEWEB-0523             
1 54141U 22138AE  25326.97201194  .00000006  00000+0 -16336-4 0  9991
2 54141  87.9180 315.5665 0001157  66.7274 293.3981 13.20773129152083
ONEWEB-0524             
1 54142U 22138AF  25327.03671372  .00001080  00000+0  26228-2 0  9990
2 54142  87.9178 315.5565 0002078  62.6172 297.5173 13.20781055152092
ONEWEB-0525             
1 54143U 22138AG  25327.09137772 -.00000343  00000+0 -88894-3 0  9999
2 54143  87.9207 345.9714 0002175  95.8640 264.2741 13.19725250149647
ONEWEB-0526             
1 54144U 22138AH  25327.12455190  .00000052  00000+0  98262-4 0  9997
2 54144  87.9213 345.9522 0001957  94.5841 265.5516 13.19727528149620
ONEWEB-0529             
1 54145U 22138AJ  25327.12770854  .00000059  00000+0  11619-3 0  9992
2 54145  87.9198 345.9820 0002083  92.2446 267.8925 13.19727786149648
